[{"OBJECT_NAME":"SHIYAN-4 (SY-4)","OBJECT_ID":"2011-068B","EPOCH":"2026-03-09T23:00:28.675872","MEAN_MOTION":14.31088676,"ECCENTRICITY":0.00240064,"INCLINATION":98.7036,"RA_OF_ASC_NODE":87.8563,"ARG_OF_PERICENTER":77.8488,"MEAN_ANOMALY":342.0096,"EPHEMERIS_TYPE":0,"CLASSIFICATION_TYPE":"U","NORAD_CAT_ID":37931,"ELEMENT_SET_NO":999,"REV_AT_EPOCH":74470,"BSTAR":0.00010117128,"MEAN_MOTION_DOT":2.23e-6,"MEAN_MOTION_DDOT":0},{"OBJECT_NAME":"COSMOS 1867 COOLANT","OBJECT_ID":"1987-060AT","EPOCH":"2026-03-09T05:33:12.524544","MEAN_MOTION":14.34292189,"ECCENTRICITY":0.0014983,"INCLINATION":65.0092,"RA_OF_ASC_NODE":292.0682,"ARG_OF_PERICENTER":282.5364,"MEAN_ANOMALY":77.4045,"EPHEMERIS_TYPE":0,"CLASSIFICATION_TYPE":"U","NORAD_CAT_ID":43326,"ELEMENT_SET_NO":999,"REV_AT_EPOCH":44291,"BSTAR":0.00018504775,"MEAN_MOTION_DOT":4.2e-6,"MEAN_MOTION_DDOT":0}]
